0 SL-12 DEB
1 25809U 87079U   13282.39992564  .00002483  00000-0  19697-2 0  4556
2 25809 065.1584 011.9360 4678542 107.6310 004.3579 05.98461780305632
0 SL-12 DEB
1 25809U 87079U   13283.40266366  .00002745  00000-0  21787-2 0  4568
2 25809 065.1590 011.3385 4678433 107.5440 004.7300 05.98467127305695
0 SL-12 DEB
1 25809U 87079U   13285.57272346  .00003391  00000-0  26927-2 0  4584
2 25809 065.1610 010.0431 4678143 107.3497 000.1285 05.98475246305822
0 SL-12 DEB
1 25809U 87079U   13286.57555961  .00003530  00000-0  28047-2 0  4593
2 25809 065.1618 009.4427 4678011 107.2642 000.7649 05.98478783305887
0 SL-12 DEB
1 25809U 87079U   13288.40891222  .00004329  00000-0  34435-2 0  4607
2 25809 065.1618 008.3492 4677631 107.1190 350.7829 05.98509860305992
0 SL-12 DEB
1 25809U 87079U   13289.07584413  .00003760  00000-0  29994-2 0  4615
2 25809 065.1617 007.9524 4677445 107.0597 347.7547 05.98515545306031
0 SL-12 DEB
1 25809U 87079U   13289.58318938  .00003901  00000-0  31142-2 0  4624
2 25809 065.1622 007.6494 4677386 107.0158 000.8938 05.98518253306060
0 SL-12 DEB
1 25809U 87079U   13290.58598828  .00003799  00000-0  30396-2 0  4630
2 25809 065.1628 007.0505 4677229 106.9268 001.5648 05.98527990306120
0 SL-12 DEB
1 25809U 87079U   13292.59234904  .00003455  00000-0  27832-2 0  4646
2 25809 065.1634 005.8526 4676903 106.7510 004.6492 05.98545907306244
0 SL-12 DEB
1 25809U 87079U   13293.59408853  .00003030  00000-0  24570-2 0  4659
2 25809 065.1630 005.2508 4676584 106.6568 003.1316 05.98554696306302
0 SL-12 DEB
1 25809U 87079U   13294.26108771  .00002304  00000-0  18799-2 0  4660
2 25809 065.1636 004.8517 4676498 106.5992 000.3391 05.98564927306341
0 SL-12 DEB
1 25809U 87079U   13295.59909619  .00002317  00000-0  18879-2 0  4671
2 25809 065.1684 004.0450 4676674 106.4345 003.4930 05.98574246306426
